STP-S29A OBJECT A       
1 68627U 26074A   26104.15304050  .00005540  00000+0  24324-3 0  9990
2 68627  60.0183  63.8182 0016168 312.0670  47.9034 15.23200286  1027
STP-S29A OBJECT B       
1 68628U 26074B   26104.28381773  .00004345  00000+0  19290-3 0  9990
2 68628  60.0232  63.3227 0014564 315.2165  44.7738 15.23304644  1030
STP-S29A OBJECT C       
1 68629U 26074C   26104.28196067  .00005932  00000+0  25534-3 0  9992
2 68629  60.0221  63.3113 0017954 321.4067  38.5729 15.23737722  1048
STP-S29A OBJECT D       
1 68630U 26074D   26104.14935859  .00003593  00000+0  15819-3 0  9995
2 68630  60.0224  63.8085 0015928 326.1028  33.9033 15.24024853  1013
STP-S29A OBJECT E       
1 68631U 26074E   26104.28050448  .00003084  00000+0  13739-3 0  9997
2 68631  60.0220  63.3036 0016542 326.1174  33.8849 15.24037954  1049
CANVAS                  
1 68635U 26074J   26104.14978836  .00006543  00000+0  27860-3 0  9999
2 68635  60.0236  63.8139 0018342 325.0596  34.9280 15.23954188  1020
HULIANWANG DIGUI-164    
1 68656U 26076A   26104.00303581 -.00001105  00000+0 -10283-2 0  9999
2 68656  86.4938  66.4743 0007514 200.6007 159.4859 13.82971780   729
HULIANWANG DIGUI-165    
1 68657U 26076B   26104.29221781  .00000167  00000+0  13711-3 0  9997
2 68657  86.4958  66.3688 0007295 198.4691 161.6213 13.83030330   769
HULIANWANG DIGUI-166    
1 68658U 26076C   26104.29160269 -.00000597  00000+0 -56100-3 0  9999
2 68658  86.4899  66.3598 0006693 192.0042 168.0967 13.83186288   766
HULIANWANG DIGUI-167    
1 68659U 26076D   26104.29108008 -.00000061  00000+0 -71204-4 0  9992
2 68659  86.4958  66.3686 0006387 183.8659 176.2461 13.83320754   761
HULIANWANG DIGUI-168    
1 68660U 26076E   26104.29078715 -.00000596  00000+0 -55796-3 0  9995
2 68660  86.4937  66.3652 0005947 182.4082 177.7058 13.83393958   752
GUOWANG TEST OBJECT A   
1 68687U 26078A   26104.30228554 -.00005663  00000+0 -66049-2 0  9998
2 68687  86.4975 304.8846 0008199 280.3741  79.6494 13.68808995   377
