[{"OBJECT_NAME":"STP-S29A OBJECT A","OBJECT_ID":"2026-074A","EPOCH":"2026-04-14T03:40:22.699200","MEAN_MOTION":15.23200286,"ECCENTRICITY":0.00161689,"INCLINATION":60.0183,"RA_OF_ASC_NODE":63.8182,"ARG_OF_PERICENTER":312.067,"MEAN_ANOMALY":47.9034,"EPHEMERIS_TYPE":0,"CLASSIFICATION_TYPE":"U","NORAD_CAT_ID":68627,"ELEMENT_SET_NO":999,"REV_AT_EPOCH":102,"BSTAR":0.00024324324,"MEAN_MOTION_DOT":5.54e-5,"MEAN_MOTION_DDOT":0},{"OBJECT_NAME":"STP-S29A OBJECT B","OBJECT_ID":"2026-074B","EPOCH":"2026-04-14T06:48:41.851872","MEAN_MOTION":15.23304644,"ECCENTRICITY":0.0014564,"INCLINATION":60.0232,"RA_OF_ASC_NODE":63.3227,"ARG_OF_PERICENTER":315.2165,"MEAN_ANOMALY":44.7738,"EPHEMERIS_TYPE":0,"CLASSIFICATION_TYPE":"U","NORAD_CAT_ID":68628,"ELEMENT_SET_NO":999,"REV_AT_EPOCH":103,"BSTAR":0.000192904,"MEAN_MOTION_DOT":4.345e-5,"MEAN_MOTION_DDOT":0},{"OBJECT_NAME":"STP-S29A OBJECT C","OBJECT_ID":"2026-074C","EPOCH":"2026-04-14T06:46:01.401888","MEAN_MOTION":15.23737722,"ECCENTRICITY":0.00179542,"INCLINATION":60.0221,"RA_OF_ASC_NODE":63.3113,"ARG_OF_PERICENTER":321.4067,"MEAN_ANOMALY":38.5729,"EPHEMERIS_TYPE":0,"CLASSIFICATION_TYPE":"U","NORAD_CAT_ID":68629,"ELEMENT_SET_NO":999,"REV_AT_EPOCH":104,"BSTAR":0.000255344,"MEAN_MOTION_DOT":5.932e-5,"MEAN_MOTION_DDOT":0},{"OBJECT_NAME":"STP-S29A OBJECT D","OBJECT_ID":"2026-074D","EPOCH":"2026-04-14T03:35:04.582176","MEAN_MOTION":15.24024853,"ECCENTRICITY":0.00159282,"INCLINATION":60.0224,"RA_OF_ASC_NODE":63.8085,"ARG_OF_PERICENTER":326.1028,"MEAN_ANOMALY":33.9033,"EPHEMERIS_TYPE":0,"CLASSIFICATION_TYPE":"U","NORAD_CAT_ID":68630,"ELEMENT_SET_NO":999,"REV_AT_EPOCH":101,"BSTAR":0.0001581918,"MEAN_MOTION_DOT":3.593e-5,"MEAN_MOTION_DDOT":0},{"OBJECT_NAME":"STP-S29A OBJECT E","OBJECT_ID":"2026-074E","EPOCH":"2026-04-14T06:43:55.587072","MEAN_MOTION":15.24037954,"ECCENTRICITY":0.00165425,"INCLINATION":60.022,"RA_OF_ASC_NODE":63.3036,"ARG_OF_PERICENTER":326.1174,"MEAN_ANOMALY":33.8849,"EPHEMERIS_TYPE":0,"CLASSIFICATION_TYPE":"U","NORAD_CAT_ID":68631,"ELEMENT_SET_NO":999,"REV_AT_EPOCH":104,"BSTAR":0.00013739167,"MEAN_MOTION_DOT":3.084e-5,"MEAN_MOTION_DDOT":0},{"OBJECT_NAME":"CANVAS","OBJECT_ID":"2026-074J","EPOCH":"2026-04-14T03:35:41.714304","MEAN_MOTION":15.23954188,"ECCENTRICITY":0.00183421,"INCLINATION":60.0236,"RA_OF_ASC_NODE":63.8139,"ARG_OF_PERICENTER":325.0596,"MEAN_ANOMALY":34.928,"EPHEMERIS_TYPE":0,"CLASSIFICATION_TYPE":"U","NORAD_CAT_ID":68635,"ELEMENT_SET_NO":999,"REV_AT_EPOCH":102,"BSTAR":0.00027859861,"MEAN_MOTION_DOT":6.543e-5,"MEAN_MOTION_DDOT":0},{"OBJECT_NAME":"HULIANWANG DIGUI-164","OBJECT_ID":"2026-076A","EPOCH":"2026-04-14T00:04:22.293984","MEAN_MOTION":13.8297178,"ECCENTRICITY":0.00075148,"INCLINATION":86.4938,"RA_OF_ASC_NODE":66.4743,"ARG_OF_PERICENTER":200.6007,"MEAN_ANOMALY":159.4859,"EPHEMERIS_TYPE":0,"CLASSIFICATION_TYPE":"U","NORAD_CAT_ID":68656,"ELEMENT_SET_NO":999,"REV_AT_EPOCH":72,"BSTAR":-0.0010283162,"MEAN_MOTION_DOT":-1.105e-5,"MEAN_MOTION_DDOT":0},{"OBJECT_NAME":"HULIANWANG DIGUI-165","OBJECT_ID":"2026-076B","EPOCH":"2026-04-14T07:00:47.618784","MEAN_MOTION":13.8303033,"ECCENTRICITY":0.00072953,"INCLINATION":86.4958,"RA_OF_ASC_NODE":66.3688,"ARG_OF_PERICENTER":198.4691,"MEAN_ANOMALY":161.6213,"EPHEMERIS_TYPE":0,"CLASSIFICATION_TYPE":"U","NORAD_CAT_ID":68657,"ELEMENT_SET_NO":999,"REV_AT_EPOCH":76,"BSTAR":0.00013711396,"MEAN_MOTION_DOT":1.67e-6,"MEAN_MOTION_DDOT":0},{"OBJECT_NAME":"HULIANWANG DIGUI-166","OBJECT_ID":"2026-076C","EPOCH":"2026-04-14T06:59:54.472416","MEAN_MOTION":13.83186288,"ECCENTRICITY":0.00066936,"INCLINATION":86.4899,"RA_OF_ASC_NODE":66.3598,"ARG_OF_PERICENTER":192.0042,"MEAN_ANOMALY":168.0967,"EPHEMERIS_TYPE":0,"CLASSIFICATION_TYPE":"U","NORAD_CAT_ID":68658,"ELEMENT_SET_NO":999,"REV_AT_EPOCH":76,"BSTAR":-0.00056099502,"MEAN_MOTION_DOT":-5.97e-6,"MEAN_MOTION_DDOT":0},{"OBJECT_NAME":"HULIANWANG DIGUI-167","OBJECT_ID":"2026-076D","EPOCH":"2026-04-14T06:59:09.318912","MEAN_MOTION":13.83320754,"ECCENTRICITY":0.00063871,"INCLINATION":86.4958,"RA_OF_ASC_NODE":66.3686,"ARG_OF_PERICENTER":183.8659,"MEAN_ANOMALY":176.2461,"EPHEMERIS_TYPE":0,"CLASSIFICATION_TYPE":"U","NORAD_CAT_ID":68659,"ELEMENT_SET_NO":999,"REV_AT_EPOCH":76,"BSTAR":-7.1203505e-5,"MEAN_MOTION_DOT":-6.1e-7,"MEAN_MOTION_DDOT":0},{"OBJECT_NAME":"HULIANWANG DIGUI-168","OBJECT_ID":"2026-076E","EPOCH":"2026-04-14T06:58:44.009760","MEAN_MOTION":13.83393958,"ECCENTRICITY":0.00059471,"INCLINATION":86.4937,"RA_OF_ASC_NODE":66.3652,"ARG_OF_PERICENTER":182.4082,"MEAN_ANOMALY":177.7058,"EPHEMERIS_TYPE":0,"CLASSIFICATION_TYPE":"U","NORAD_CAT_ID":68660,"ELEMENT_SET_NO":999,"REV_AT_EPOCH":75,"BSTAR":-0.00055796175,"MEAN_MOTION_DOT":-5.96e-6,"MEAN_MOTION_DDOT":0},{"OBJECT_NAME":"GUOWANG TEST OBJECT A","OBJECT_ID":"2026-078A","EPOCH":"2026-04-14T07:15:17.470656","MEAN_MOTION":13.68808995,"ECCENTRICITY":0.00081993,"INCLINATION":86.4975,"RA_OF_ASC_NODE":304.8846,"ARG_OF_PERICENTER":280.3741,"MEAN_ANOMALY":79.6494,"EPHEMERIS_TYPE":0,"CLASSIFICATION_TYPE":"U","NORAD_CAT_ID":68687,"ELEMENT_SET_NO":999,"REV_AT_EPOCH":37,"BSTAR":-0.0066049413,"MEAN_MOTION_DOT":-5.663e-5,"MEAN_MOTION_DDOT":0}]
